STARLINK-30303          
1 57677U 23124Q   26068.69586481  .00000192  00000+0  18602-4 0  9995
2 57677  53.1620 206.4498 0001078  67.0734 293.0381 15.30193284143579
TEVEL2-5                
1 63214U 25052E   26068.96660006  .00021339  00000+0  71765-3 0  9991
2 63214  97.4013 325.3677 0004700  95.3936 264.7842 15.30817434 54919
